GSLV R/B                
1 54149U 22138AN  26065.24429797  .00004123  00000+0  35660-3 0  9994
2 54149  87.3886 167.5155 0022563 158.6361 201.5818 14.96746333183411
XRISM                   
1 57800U 23137A   26065.07455433  .00006032  00000+0  34222-3 0  9992
2 57800  31.0027 307.0459 0008061   1.6884 358.3781 15.11449805137245
ACS3                    
1 59588U 24077B   26065.25759540  .00029605  00000+0  23871-1 0  9994
2 59588  97.2098   7.1413 0057085  85.7289 275.0395 13.89439378 93729
SZ-21 MODULE            
1 66515U 25246C   26064.80716873  .00041310  00000+0  36032-3 0  9995
2 66515  41.4734 227.2544 0001427 292.1430  67.9260 15.68194204 17467
