CCSDS_OMM_VERS = 2.0
CREATION_DATE  = 
ORIGINATOR     = 

OBJECT_NAME    = GSLV R/B
OBJECT_ID      = 2022-138AN
CENTER_NAME    = EARTH
REF_FRAME      = TEME
TIME_SYSTEM    = UTC
MEAN_ELEMENT_THEORY = SGP/SGP4

EPOCH          = 2026-03-06T05:51:47.344608
MEAN_MOTION    = 14.96746333
ECCENTRICITY   = .00225631
INCLINATION    = 87.3886
RA_OF_ASC_NODE = 167.5155
ARG_OF_PERICENTER = 158.6361
MEAN_ANOMALY   = 201.5818

EPHEMERIS_TYPE = 0
CLASSIFICATION_TYPE = U
NORAD_CAT_ID   = 54149
ELEMENT_SET_NO = 999
REV_AT_EPOCH   = 18341
BSTAR          = .35659974E-3
MEAN_MOTION_DOT = .4123E-4
MEAN_MOTION_DDOT = 0

CCSDS_OMM_VERS = 2.0
CREATION_DATE  = 
ORIGINATOR     = 

OBJECT_NAME    = XRISM
OBJECT_ID      = 2023-137A
CENTER_NAME    = EARTH
REF_FRAME      = TEME
TIME_SYSTEM    = UTC
MEAN_ELEMENT_THEORY = SGP/SGP4

EPOCH          = 2026-03-06T01:47:21.494112
MEAN_MOTION    = 15.11449805
ECCENTRICITY   = .00080617
INCLINATION    = 31.0027
RA_OF_ASC_NODE = 307.0459
ARG_OF_PERICENTER = 1.6884
MEAN_ANOMALY   = 358.3781

EPHEMERIS_TYPE = 0
CLASSIFICATION_TYPE = U
NORAD_CAT_ID   = 57800
ELEMENT_SET_NO = 999
REV_AT_EPOCH   = 13724
BSTAR          = .34222498E-3
MEAN_MOTION_DOT = .6032E-4
MEAN_MOTION_DDOT = 0

CCSDS_OMM_VERS = 2.0
CREATION_DATE  = 
ORIGINATOR     = 

OBJECT_NAME    = ACS3
OBJECT_ID      = 2024-077B
CENTER_NAME    = EARTH
REF_FRAME      = TEME
TIME_SYSTEM    = UTC
MEAN_ELEMENT_THEORY = SGP/SGP4

EPOCH          = 2026-03-06T06:10:56.242560
MEAN_MOTION    = 13.89439378
ECCENTRICITY   = .00570858
INCLINATION    = 97.2098
RA_OF_ASC_NODE = 7.1413
ARG_OF_PERICENTER = 85.7289
MEAN_ANOMALY   = 275.0395

EPHEMERIS_TYPE = 0
CLASSIFICATION_TYPE = U
NORAD_CAT_ID   = 59588
ELEMENT_SET_NO = 999
REV_AT_EPOCH   = 9372
BSTAR          = .23870869E-1
MEAN_MOTION_DOT = .29605E-3
MEAN_MOTION_DDOT = 0

CCSDS_OMM_VERS = 2.0
CREATION_DATE  = 
ORIGINATOR     = 

OBJECT_NAME    = SZ-21 MODULE
OBJECT_ID      = 2025-246C
CENTER_NAME    = EARTH
REF_FRAME      = TEME
TIME_SYSTEM    = UTC
MEAN_ELEMENT_THEORY = SGP/SGP4

EPOCH          = 2026-03-05T19:22:19.378272
MEAN_MOTION    = 15.68194204
ECCENTRICITY   = .00014276
INCLINATION    = 41.4734
RA_OF_ASC_NODE = 227.2544
ARG_OF_PERICENTER = 292.1430
MEAN_ANOMALY   = 67.9260

EPHEMERIS_TYPE = 0
CLASSIFICATION_TYPE = U
NORAD_CAT_ID   = 66515
ELEMENT_SET_NO = 999
REV_AT_EPOCH   = 1746
BSTAR          = .36031689E-3
MEAN_MOTION_DOT = .4131E-3
MEAN_MOTION_DDOT = 0

